IRIDIUM 144             
1 43249U 18030A   23323.75098633  .00000159  00000+0  49592-4 0  9995
2 43249  86.3941 323.4616 0002323  90.9634 269.1828 14.34215425295341
IRIDIUM 149             
1 43250U 18030B   23323.75732403  .00000171  00000+0  54171-4 0  9990
2 43250  86.3939 323.4363 0002513  90.5257 269.6227 14.34217915295363
IRIDIUM 157             
1 43251U 18030C   23323.91587029  .00000150  00000+0  46404-4 0  9998
2 43251  86.3943 323.4024 0001991  90.0408 270.1016 14.34218520295361
IRIDIUM 140             
1 43252U 18030D   23323.93491040  .00000153  00000+0  47394-4 0  9990
2 43252  86.3943 323.4091 0002429  97.5918 262.5554 14.34217152295420
IRIDIUM 145             
1 43253U 18030E   23323.92223183  .00000166  00000+0  52105-4 0  9991
2 43253  86.3942 323.3888 0002576  90.5501 269.5990 14.34217508295355
IRIDIUM 146             
1 43254U 18030F   23323.76365100  .00000158  00000+0  49180-4 0  9990
2 43254  86.3941 323.4705 0002527  88.5794 271.5692 14.34218248295344
IRIDIUM 148             
1 43255U 18030G   23323.94126614  .00000148  00000+0  45706-4 0  9995
2 43255  86.3943 323.4253 0002410  83.7500 276.3970 14.34215407295401
IRIDIUM 142             
1 43256U 18030H   23323.77000899  .00000125  00000+0  37461-4 0  9997
2 43256  86.3939 323.4201 0002352  85.9415 274.2049 14.34217776295342
